[{"OBJECT_NAME":"STARLINK-36858","OBJECT_ID":"2026-040G","EPOCH":"2026-03-09T22:00:01.999584","MEAN_MOTION":16.05521937,"ECCENTRICITY":8.726e-5,"INCLINATION":97.2769,"RA_OF_ASC_NODE":17.1161,"ARG_OF_PERICENTER":94.6122,"MEAN_ANOMALY":268.5447,"EPHEMERIS_TYPE":0,"CLASSIFICATION_TYPE":"U","NORAD_CAT_ID":68021,"ELEMENT_SET_NO":999,"REV_AT_EPOCH":246,"BSTAR":-0.0016837377,"MEAN_MOTION_DOT":-0.01173651,"MEAN_MOTION_DDOT":0.00047013051},{"OBJECT_NAME":"TRANSPORTER-3 OBJECT CN","OBJECT_ID":"2022-002CN","EPOCH":"2026-03-09T00:10:57.415008","MEAN_MOTION":15.91169862,"ECCENTRICITY":0.00041683,"INCLINATION":97.2911,"RA_OF_ASC_NODE":151.8924,"ARG_OF_PERICENTER":252.5187,"MEAN_ANOMALY":107.5632,"EPHEMERIS_TYPE":0,"CLASSIFICATION_TYPE":"U","NORAD_CAT_ID":51068,"ELEMENT_SET_NO":999,"REV_AT_EPOCH":23158,"BSTAR":0.0010900593,"MEAN_MOTION_DOT":0.0034335,"MEAN_MOTION_DDOT":4.614884e-5}]
